ORBCOMM FM20            
1 25416U 98046D   24157.27476362  .00001091  00000+0  42591-3 0  9995
2 25416  44.9931 163.7010 0001982 283.4495  76.6131 14.35321047350072
ORBCOMM FM16            
1 25417U 98046E   24157.56323989  .00001942  00000+0  70571-3 0  9998
2 25417  44.9930 157.9082 0004212 234.1507 125.8949 14.36337553350054
ORBCOMM FM15            
1 25418U 98046F   24157.38575448  .00001519  00000+0  56564-3 0  9994
2 25418  44.9961 162.8689 0004017 237.3830 122.6630 14.36053251350034
ORBCOMM FM14            
1 25419U 98046G   24157.40727116  .00001717  00000+0  63080-3 0  9990
2 25419  44.9952 161.8452 0002687 242.8046 117.2528 14.36238250349996
ORBCOMM FM13            
1 25420U 98046H   24157.32703384  .00001340  00000+0  51037-3 0  9995
2 25420  44.9964 167.2442 0004377 212.2469 147.8111 14.35495110349040
ORBCOMM FM21            
1 25475U 98053A   24157.55742263  .00001328  00000+0  50714-3 0  9994
2 25475  45.0085 250.5141 0001947 220.2040 139.8664 14.35419955343098
ORBCOMM FM22            
1 25476U 98053B   24157.52524390  .00001742  00000+0  64275-3 0  9998
2 25476  45.0079 247.8432 0002391 181.5351 178.5490 14.35970844343087
ORBCOMM FM23            
1 25477U 98053C   24157.58482227  .00001411  00000+0  53522-3 0  9993
2 25477  45.0084 252.8019 0002068 190.8787 169.2015 14.35466370343240
