<?xml version="1.0" encoding="UTF-8"?>
<ndm xmlns:xsi="http://www.w3.org/2001/XMLSchema-instance" xsi:noNamespaceSchemaLocation="https://sanaregistry.org/r/ndmxml_unqualified/ndmxml-2.0.0-master-2.0.xsd">
<omm id="CCSDS_OMM_VERS" version="2.0">
<header><CREATION_DATE/><ORIGINATOR/></header><body><segment><metadata><OBJECT_NAME>ORBCOMM FM20</OBJECT_NAME><OBJECT_ID>1998-046D</OBJECT_ID><CENTER_NAME>EARTH</CENTER_NAME><REF_FRAME>TEME</REF_FRAME><TIME_SYSTEM>UTC</TIME_SYSTEM><MEAN_ELEMENT_THEORY>SGP4</MEAN_ELEMENT_THEORY></metadata><data><meanElements><EPOCH>2024-06-05T06:35:39.576768</EPOCH><MEAN_MOTION>14.35321047</MEAN_MOTION><ECCENTRICITY>.0001982</ECCENTRICITY><INCLINATION>44.9931</INCLINATION><RA_OF_ASC_NODE>163.7010</RA_OF_ASC_NODE><ARG_OF_PERICENTER>283.4495</ARG_OF_PERICENTER><MEAN_ANOMALY>76.6131</MEAN_ANOMALY></meanElements><tleParameters><EPHEMERIS_TYPE>0</EPHEMERIS_TYPE><CLASSIFICATION_TYPE>U</CLASSIFICATION_TYPE><NORAD_CAT_ID>25416</NORAD_CAT_ID><ELEMENT_SET_NO>999</ELEMENT_SET_NO><REV_AT_EPOCH>35007</REV_AT_EPOCH><BSTAR>.42591E-3</BSTAR><MEAN_MOTION_DOT>.1091E-4</MEAN_MOTION_DOT><MEAN_MOTION_DDOT>0</MEAN_MOTION_DDOT></tleParameters></data></segment></body></omm>
<omm id="CCSDS_OMM_VERS" version="2.0">
<header><CREATION_DATE/><ORIGINATOR/></header><body><segment><metadata><OBJECT_NAME>ORBCOMM FM16</OBJECT_NAME><OBJECT_ID>1998-046E</OBJECT_ID><CENTER_NAME>EARTH</CENTER_NAME><REF_FRAME>TEME</REF_FRAME><TIME_SYSTEM>UTC</TIME_SYSTEM><MEAN_ELEMENT_THEORY>SGP4</MEAN_ELEMENT_THEORY></metadata><data><meanElements><EPOCH>2024-06-05T13:31:03.926496</EPOCH><MEAN_MOTION>14.36337553</MEAN_MOTION><ECCENTRICITY>.0004212</ECCENTRICITY><INCLINATION>44.9930</INCLINATION><RA_OF_ASC_NODE>157.9082</RA_OF_ASC_NODE><ARG_OF_PERICENTER>234.1507</ARG_OF_PERICENTER><MEAN_ANOMALY>125.8949</MEAN_ANOMALY></meanElements><tleParameters><EPHEMERIS_TYPE>0</EPHEMERIS_TYPE><CLASSIFICATION_TYPE>U</CLASSIFICATION_TYPE><NORAD_CAT_ID>25417</NORAD_CAT_ID><ELEMENT_SET_NO>999</ELEMENT_SET_NO><REV_AT_EPOCH>35005</REV_AT_EPOCH><BSTAR>.70571E-3</BSTAR><MEAN_MOTION_DOT>.1942E-4</MEAN_MOTION_DOT><MEAN_MOTION_DDOT>0</MEAN_MOTION_DDOT></tleParameters></data></segment></body></omm>
<omm id="CCSDS_OMM_VERS" version="2.0">
<header><CREATION_DATE/><ORIGINATOR/></header><body><segment><metadata><OBJECT_NAME>ORBCOMM FM15</OBJECT_NAME><OBJECT_ID>1998-046F</OBJECT_ID><CENTER_NAME>EARTH</CENTER_NAME><REF_FRAME>TEME</REF_FRAME><TIME_SYSTEM>UTC</TIME_SYSTEM><MEAN_ELEMENT_THEORY>SGP4</MEAN_ELEMENT_THEORY></metadata><data><meanElements><EPOCH>2024-06-05T09:15:29.187072</EPOCH><MEAN_MOTION>14.36053251</MEAN_MOTION><ECCENTRICITY>.0004017</ECCENTRICITY><INCLINATION>44.9961</INCLINATION><RA_OF_ASC_NODE>162.8689</RA_OF_ASC_NODE><ARG_OF_PERICENTER>237.3830</ARG_OF_PERICENTER><MEAN_ANOMALY>122.6630</MEAN_ANOMALY></meanElements><tleParameters><EPHEMERIS_TYPE>0</EPHEMERIS_TYPE><CLASSIFICATION_TYPE>U</CLASSIFICATION_TYPE><NORAD_CAT_ID>25418</NORAD_CAT_ID><ELEMENT_SET_NO>999</ELEMENT_SET_NO><REV_AT_EPOCH>35003</REV_AT_EPOCH><BSTAR>.56564E-3</BSTAR><MEAN_MOTION_DOT>.1519E-4</MEAN_MOTION_DOT><MEAN_MOTION_DDOT>0</MEAN_MOTION_DDOT></tleParameters></data></segment></body></omm>
<omm id="CCSDS_OMM_VERS" version="2.0">
<header><CREATION_DATE/><ORIGINATOR/></header><body><segment><metadata><OBJECT_NAME>ORBCOMM FM14</OBJECT_NAME><OBJECT_ID>1998-046G</OBJECT_ID><CENTER_NAME>EARTH</CENTER_NAME><REF_FRAME>TEME</REF_FRAME><TIME_SYSTEM>UTC</TIME_SYSTEM><MEAN_ELEMENT_THEORY>SGP4</MEAN_ELEMENT_THEORY></metadata><data><meanElements><EPOCH>2024-06-05T09:46:28.228224</EPOCH><MEAN_MOTION>14.36238250</MEAN_MOTION><ECCENTRICITY>.0002687</ECCENTRICITY><INCLINATION>44.9952</INCLINATION><RA_OF_ASC_NODE>161.8452</RA_OF_ASC_NODE><ARG_OF_PERICENTER>242.8046</ARG_OF_PERICENTER><MEAN_ANOMALY>117.2528</MEAN_ANOMALY></meanElements><tleParameters><EPHEMERIS_TYPE>0</EPHEMERIS_TYPE><CLASSIFICATION_TYPE>U</CLASSIFICATION_TYPE><NORAD_CAT_ID>25419</NORAD_CAT_ID><ELEMENT_SET_NO>999</ELEMENT_SET_NO><REV_AT_EPOCH>34999</REV_AT_EPOCH><BSTAR>.6308E-3</BSTAR><MEAN_MOTION_DOT>.1717E-4</MEAN_MOTION_DOT><MEAN_MOTION_DDOT>0</MEAN_MOTION_DDOT></tleParameters></data></segment></body></omm>
<omm id="CCSDS_OMM_VERS" version="2.0">
<header><CREATION_DATE/><ORIGINATOR/></header><body><segment><metadata><OBJECT_NAME>ORBCOMM FM13</OBJECT_NAME><OBJECT_ID>1998-046H</OBJECT_ID><CENTER_NAME>EARTH</CENTER_NAME><REF_FRAME>TEME</REF_FRAME><TIME_SYSTEM>UTC</TIME_SYSTEM><MEAN_ELEMENT_THEORY>SGP4</MEAN_ELEMENT_THEORY></metadata><data><meanElements><EPOCH>2024-06-05T07:50:55.723776</EPOCH><MEAN_MOTION>14.35495110</MEAN_MOTION><ECCENTRICITY>.0004377</ECCENTRICITY><INCLINATION>44.9964</INCLINATION><RA_OF_ASC_NODE>167.2442</RA_OF_ASC_NODE><ARG_OF_PERICENTER>212.2469</ARG_OF_PERICENTER><MEAN_ANOMALY>147.8111</MEAN_ANOMALY></meanElements><tleParameters><EPHEMERIS_TYPE>0</EPHEMERIS_TYPE><CLASSIFICATION_TYPE>U</CLASSIFICATION_TYPE><NORAD_CAT_ID>25420</NORAD_CAT_ID><ELEMENT_SET_NO>999</ELEMENT_SET_NO><REV_AT_EPOCH>34904</REV_AT_EPOCH><BSTAR>.51037E-3</BSTAR><MEAN_MOTION_DOT>.134E-4</MEAN_MOTION_DOT><MEAN_MOTION_DDOT>0</MEAN_MOTION_DDOT></tleParameters></data></segment></body></omm>
<omm id="CCSDS_OMM_VERS" version="2.0">
<header><CREATION_DATE/><ORIGINATOR/></header><body><segment><metadata><OBJECT_NAME>ORBCOMM FM21</OBJECT_NAME><OBJECT_ID>1998-053A</OBJECT_ID><CENTER_NAME>EARTH</CENTER_NAME><REF_FRAME>TEME</REF_FRAME><TIME_SYSTEM>UTC</TIME_SYSTEM><MEAN_ELEMENT_THEORY>SGP4</MEAN_ELEMENT_THEORY></metadata><data><meanElements><EPOCH>2024-06-05T13:22:41.315232</EPOCH><MEAN_MOTION>14.35419955</MEAN_MOTION><ECCENTRICITY>.0001947</ECCENTRICITY><INCLINATION>45.0085</INCLINATION><RA_OF_ASC_NODE>250.5141</RA_OF_ASC_NODE><ARG_OF_PERICENTER>220.2040</ARG_OF_PERICENTER><MEAN_ANOMALY>139.8664</MEAN_ANOMALY></meanElements><tleParameters><EPHEMERIS_TYPE>0</EPHEMERIS_TYPE><CLASSIFICATION_TYPE>U</CLASSIFICATION_TYPE><NORAD_CAT_ID>25475</NORAD_CAT_ID><ELEMENT_SET_NO>999</ELEMENT_SET_NO><REV_AT_EPOCH>34309</REV_AT_EPOCH><BSTAR>.50714E-3</BSTAR><MEAN_MOTION_DOT>.1328E-4</MEAN_MOTION_DOT><MEAN_MOTION_DDOT>0</MEAN_MOTION_DDOT></tleParameters></data></segment></body></omm>
<omm id="CCSDS_OMM_VERS" version="2.0">
<header><CREATION_DATE/><ORIGINATOR/></header><body><segment><metadata><OBJECT_NAME>ORBCOMM FM22</OBJECT_NAME><OBJECT_ID>1998-053B</OBJECT_ID><CENTER_NAME>EARTH</CENTER_NAME><REF_FRAME>TEME</REF_FRAME><TIME_SYSTEM>UTC</TIME_SYSTEM><MEAN_ELEMENT_THEORY>SGP4</MEAN_ELEMENT_THEORY></metadata><data><meanElements><EPOCH>2024-06-05T12:36:21.072960</EPOCH><MEAN_MOTION>14.35970844</MEAN_MOTION><ECCENTRICITY>.0002391</ECCENTRICITY><INCLINATION>45.0079</INCLINATION><RA_OF_ASC_NODE>247.8432</RA_OF_ASC_NODE><ARG_OF_PERICENTER>181.5351</ARG_OF_PERICENTER><MEAN_ANOMALY>178.5490</MEAN_ANOMALY></meanElements><tleParameters><EPHEMERIS_TYPE>0</EPHEMERIS_TYPE><CLASSIFICATION_TYPE>U</CLASSIFICATION_TYPE><NORAD_CAT_ID>25476</NORAD_CAT_ID><ELEMENT_SET_NO>999</ELEMENT_SET_NO><REV_AT_EPOCH>34308</REV_AT_EPOCH><BSTAR>.64275E-3</BSTAR><MEAN_MOTION_DOT>.1742E-4</MEAN_MOTION_DOT><MEAN_MOTION_DDOT>0</MEAN_MOTION_DDOT></tleParameters></data></segment></body></omm>
<omm id="CCSDS_OMM_VERS" version="2.0">
<header><CREATION_DATE/><ORIGINATOR/></header><body><segment><metadata><OBJECT_NAME>ORBCOMM FM23</OBJECT_NAME><OBJECT_ID>1998-053C</OBJECT_ID><CENTER_NAME>EARTH</CENTER_NAME><REF_FRAME>TEME</REF_FRAME><TIME_SYSTEM>UTC</TIME_SYSTEM><MEAN_ELEMENT_THEORY>SGP4</MEAN_ELEMENT_THEORY></metadata><data><meanElements><EPOCH>2024-06-05T14:02:08.644128</EPOCH><MEAN_MOTION>14.35466370</MEAN_MOTION><ECCENTRICITY>.0002068</ECCENTRICITY><INCLINATION>45.0084</INCLINATION><RA_OF_ASC_NODE>252.8019</RA_OF_ASC_NODE><ARG_OF_PERICENTER>190.8787</ARG_OF_PERICENTER><MEAN_ANOMALY>169.2015</MEAN_ANOMALY></meanElements><tleParameters><EPHEMERIS_TYPE>0</EPHEMERIS_TYPE><CLASSIFICATION_TYPE>U</CLASSIFICATION_TYPE><NORAD_CAT_ID>25477</NORAD_CAT_ID><ELEMENT_SET_NO>999</ELEMENT_SET_NO><REV_AT_EPOCH>34324</REV_AT_EPOCH><BSTAR>.53522E-3</BSTAR><MEAN_MOTION_DOT>.1411E-4</MEAN_MOTION_DOT><MEAN_MOTION_DDOT>0</MEAN_MOTION_DDOT></tleParameters></data></segment></body></omm>

</ndm>
